ORBCOMM FM103 [+]       
1 40091U 14040F   24064.95446706  .00000905  00000+0  23960-3 0  9996
2 40091  47.0058  70.6562 0002860 285.5249  74.5320 14.56346907495663
ORBCOMM FM114 [+]       
1 41179U 15081A   24065.12592231  .00001363  00000+0  34199-3 0  9990
2 41179  47.0042 339.1573 0001892 342.1869  17.8949 14.56350485436052
ORBCOMM FM119 [-]       
1 41180U 15081B   24064.82046217  .00000917  00000+0  24244-3 0  9990
2 41180  46.9993 249.7828 0000810  54.2799 305.8161 14.56338253437267
ORBCOMM FM105 [-]       
1 41181U 15081C   24065.48044768  .00000564  00000+0  20818-3 0  9994
2 41181  47.0003 207.5789 0001442 359.9495   0.1384 14.44258039432975
ORBCOMM FM110 [+]       
1 41182U 15081D   24064.89710717  .00001311  00000+0  33031-3 0  9995
2 41182  47.0029 339.6470 0001561 190.8718 169.2133 14.56345675435899
ORBCOMM FM118 [+]       
1 41183U 15081E   24065.14877320  .00001179  00000+0  30077-3 0  9998
2 41183  47.0054 338.7534 0001615 191.8197 168.2650 14.56367236436038
ORBCOMM FM112 [+]       
1 41184U 15081F   24064.59260090  .00001037  00000+0  26906-3 0  9996
2 41184  46.9975 250.0900 0000606  17.5557 342.5348 14.56330011437173
ORBCOMM FM113 [+]       
1 41185U 15081G   24065.53012929  .00001433  00000+0  35761-3 0  9997
2 41185  46.9992 245.9294 0000270  80.7193 279.3722 14.56332954437291
