<?xml version="1.0" encoding="UTF-8"?>
<ndm xmlns:xsi="http://www.w3.org/2001/XMLSchema-instance" xsi:noNamespaceSchemaLocation="https://sanaregistry.org/r/ndmxml_unqualified/ndmxml-2.0.0-master-2.0.xsd">
<omm id="CCSDS_OMM_VERS" version="2.0">
<header><CREATION_DATE/><ORIGINATOR/></header><body><segment><metadata><OBJECT_NAME>ORBCOMM FM103 [+]</OBJECT_NAME><OBJECT_ID>2014-040F</OBJECT_ID><CENTER_NAME>EARTH</CENTER_NAME><REF_FRAME>TEME</REF_FRAME><TIME_SYSTEM>UTC</TIME_SYSTEM><MEAN_ELEMENT_THEORY>SGP4</MEAN_ELEMENT_THEORY></metadata><data><meanElements><EPOCH>2024-03-04T22:54:25.953984</EPOCH><MEAN_MOTION>14.56346907</MEAN_MOTION><ECCENTRICITY>.000286</ECCENTRICITY><INCLINATION>47.0058</INCLINATION><RA_OF_ASC_NODE>70.6562</RA_OF_ASC_NODE><ARG_OF_PERICENTER>285.5249</ARG_OF_PERICENTER><MEAN_ANOMALY>74.5320</MEAN_ANOMALY></meanElements><tleParameters><EPHEMERIS_TYPE>0</EPHEMERIS_TYPE><CLASSIFICATION_TYPE>U</CLASSIFICATION_TYPE><NORAD_CAT_ID>40091</NORAD_CAT_ID><ELEMENT_SET_NO>999</ELEMENT_SET_NO><REV_AT_EPOCH>49566</REV_AT_EPOCH><BSTAR>.2396E-3</BSTAR><MEAN_MOTION_DOT>.905E-5</MEAN_MOTION_DOT><MEAN_MOTION_DDOT>0</MEAN_MOTION_DDOT></tleParameters></data></segment></body></omm>
<omm id="CCSDS_OMM_VERS" version="2.0">
<header><CREATION_DATE/><ORIGINATOR/></header><body><segment><metadata><OBJECT_NAME>ORBCOMM FM114 [+]</OBJECT_NAME><OBJECT_ID>2015-081A</OBJECT_ID><CENTER_NAME>EARTH</CENTER_NAME><REF_FRAME>TEME</REF_FRAME><TIME_SYSTEM>UTC</TIME_SYSTEM><MEAN_ELEMENT_THEORY>SGP4</MEAN_ELEMENT_THEORY></metadata><data><meanElements><EPOCH>2024-03-05T03:01:19.687584</EPOCH><MEAN_MOTION>14.56350485</MEAN_MOTION><ECCENTRICITY>.0001892</ECCENTRICITY><INCLINATION>47.0042</INCLINATION><RA_OF_ASC_NODE>339.1573</RA_OF_ASC_NODE><ARG_OF_PERICENTER>342.1869</ARG_OF_PERICENTER><MEAN_ANOMALY>17.8949</MEAN_ANOMALY></meanElements><tleParameters><EPHEMERIS_TYPE>0</EPHEMERIS_TYPE><CLASSIFICATION_TYPE>U</CLASSIFICATION_TYPE><NORAD_CAT_ID>41179</NORAD_CAT_ID><ELEMENT_SET_NO>999</ELEMENT_SET_NO><REV_AT_EPOCH>43605</REV_AT_EPOCH><BSTAR>.34199E-3</BSTAR><MEAN_MOTION_DOT>.1363E-4</MEAN_MOTION_DOT><MEAN_MOTION_DDOT>0</MEAN_MOTION_DDOT></tleParameters></data></segment></body></omm>
<omm id="CCSDS_OMM_VERS" version="2.0">
<header><CREATION_DATE/><ORIGINATOR/></header><body><segment><metadata><OBJECT_NAME>ORBCOMM FM119 [-]</OBJECT_NAME><OBJECT_ID>2015-081B</OBJECT_ID><CENTER_NAME>EARTH</CENTER_NAME><REF_FRAME>TEME</REF_FRAME><TIME_SYSTEM>UTC</TIME_SYSTEM><MEAN_ELEMENT_THEORY>SGP4</MEAN_ELEMENT_THEORY></metadata><data><meanElements><EPOCH>2024-03-04T19:41:27.931488</EPOCH><MEAN_MOTION>14.56338253</MEAN_MOTION><ECCENTRICITY>.000081</ECCENTRICITY><INCLINATION>46.9993</INCLINATION><RA_OF_ASC_NODE>249.7828</RA_OF_ASC_NODE><ARG_OF_PERICENTER>54.2799</ARG_OF_PERICENTER><MEAN_ANOMALY>305.8161</MEAN_ANOMALY></meanElements><tleParameters><EPHEMERIS_TYPE>0</EPHEMERIS_TYPE><CLASSIFICATION_TYPE>U</CLASSIFICATION_TYPE><NORAD_CAT_ID>41180</NORAD_CAT_ID><ELEMENT_SET_NO>999</ELEMENT_SET_NO><REV_AT_EPOCH>43726</REV_AT_EPOCH><BSTAR>.24244E-3</BSTAR><MEAN_MOTION_DOT>.917E-5</MEAN_MOTION_DOT><MEAN_MOTION_DDOT>0</MEAN_MOTION_DDOT></tleParameters></data></segment></body></omm>
<omm id="CCSDS_OMM_VERS" version="2.0">
<header><CREATION_DATE/><ORIGINATOR/></header><body><segment><metadata><OBJECT_NAME>ORBCOMM FM105 [-]</OBJECT_NAME><OBJECT_ID>2015-081C</OBJECT_ID><CENTER_NAME>EARTH</CENTER_NAME><REF_FRAME>TEME</REF_FRAME><TIME_SYSTEM>UTC</TIME_SYSTEM><MEAN_ELEMENT_THEORY>SGP4</MEAN_ELEMENT_THEORY></metadata><data><meanElements><EPOCH>2024-03-05T11:31:50.679552</EPOCH><MEAN_MOTION>14.44258039</MEAN_MOTION><ECCENTRICITY>.0001442</ECCENTRICITY><INCLINATION>47.0003</INCLINATION><RA_OF_ASC_NODE>207.5789</RA_OF_ASC_NODE><ARG_OF_PERICENTER>359.9495</ARG_OF_PERICENTER><MEAN_ANOMALY>0.1384</MEAN_ANOMALY></meanElements><tleParameters><EPHEMERIS_TYPE>0</EPHEMERIS_TYPE><CLASSIFICATION_TYPE>U</CLASSIFICATION_TYPE><NORAD_CAT_ID>41181</NORAD_CAT_ID><ELEMENT_SET_NO>999</ELEMENT_SET_NO><REV_AT_EPOCH>43297</REV_AT_EPOCH><BSTAR>.20818E-3</BSTAR><MEAN_MOTION_DOT>.564E-5</MEAN_MOTION_DOT><MEAN_MOTION_DDOT>0</MEAN_MOTION_DDOT></tleParameters></data></segment></body></omm>
<omm id="CCSDS_OMM_VERS" version="2.0">
<header><CREATION_DATE/><ORIGINATOR/></header><body><segment><metadata><OBJECT_NAME>ORBCOMM FM110 [+]</OBJECT_NAME><OBJECT_ID>2015-081D</OBJECT_ID><CENTER_NAME>EARTH</CENTER_NAME><REF_FRAME>TEME</REF_FRAME><TIME_SYSTEM>UTC</TIME_SYSTEM><MEAN_ELEMENT_THEORY>SGP4</MEAN_ELEMENT_THEORY></metadata><data><meanElements><EPOCH>2024-03-04T21:31:50.059488</EPOCH><MEAN_MOTION>14.56345675</MEAN_MOTION><ECCENTRICITY>.0001561</ECCENTRICITY><INCLINATION>47.0029</INCLINATION><RA_OF_ASC_NODE>339.6470</RA_OF_ASC_NODE><ARG_OF_PERICENTER>190.8718</ARG_OF_PERICENTER><MEAN_ANOMALY>169.2133</MEAN_ANOMALY></meanElements><tleParameters><EPHEMERIS_TYPE>0</EPHEMERIS_TYPE><CLASSIFICATION_TYPE>U</CLASSIFICATION_TYPE><NORAD_CAT_ID>41182</NORAD_CAT_ID><ELEMENT_SET_NO>999</ELEMENT_SET_NO><REV_AT_EPOCH>43589</REV_AT_EPOCH><BSTAR>.33031E-3</BSTAR><MEAN_MOTION_DOT>.1311E-4</MEAN_MOTION_DOT><MEAN_MOTION_DDOT>0</MEAN_MOTION_DDOT></tleParameters></data></segment></body></omm>
<omm id="CCSDS_OMM_VERS" version="2.0">
<header><CREATION_DATE/><ORIGINATOR/></header><body><segment><metadata><OBJECT_NAME>ORBCOMM FM118 [+]</OBJECT_NAME><OBJECT_ID>2015-081E</OBJECT_ID><CENTER_NAME>EARTH</CENTER_NAME><REF_FRAME>TEME</REF_FRAME><TIME_SYSTEM>UTC</TIME_SYSTEM><MEAN_ELEMENT_THEORY>SGP4</MEAN_ELEMENT_THEORY></metadata><data><meanElements><EPOCH>2024-03-05T03:34:14.004480</EPOCH><MEAN_MOTION>14.56367236</MEAN_MOTION><ECCENTRICITY>.0001615</ECCENTRICITY><INCLINATION>47.0054</INCLINATION><RA_OF_ASC_NODE>338.7534</RA_OF_ASC_NODE><ARG_OF_PERICENTER>191.8197</ARG_OF_PERICENTER><MEAN_ANOMALY>168.2650</MEAN_ANOMALY></meanElements><tleParameters><EPHEMERIS_TYPE>0</EPHEMERIS_TYPE><CLASSIFICATION_TYPE>U</CLASSIFICATION_TYPE><NORAD_CAT_ID>41183</NORAD_CAT_ID><ELEMENT_SET_NO>999</ELEMENT_SET_NO><REV_AT_EPOCH>43603</REV_AT_EPOCH><BSTAR>.30077E-3</BSTAR><MEAN_MOTION_DOT>.1179E-4</MEAN_MOTION_DOT><MEAN_MOTION_DDOT>0</MEAN_MOTION_DDOT></tleParameters></data></segment></body></omm>
<omm id="CCSDS_OMM_VERS" version="2.0">
<header><CREATION_DATE/><ORIGINATOR/></header><body><segment><metadata><OBJECT_NAME>ORBCOMM FM112 [+]</OBJECT_NAME><OBJECT_ID>2015-081F</OBJECT_ID><CENTER_NAME>EARTH</CENTER_NAME><REF_FRAME>TEME</REF_FRAME><TIME_SYSTEM>UTC</TIME_SYSTEM><MEAN_ELEMENT_THEORY>SGP4</MEAN_ELEMENT_THEORY></metadata><data><meanElements><EPOCH>2024-03-04T14:13:20.717760</EPOCH><MEAN_MOTION>14.56330011</MEAN_MOTION><ECCENTRICITY>.0000606</ECCENTRICITY><INCLINATION>46.9975</INCLINATION><RA_OF_ASC_NODE>250.0900</RA_OF_ASC_NODE><ARG_OF_PERICENTER>17.5557</ARG_OF_PERICENTER><MEAN_ANOMALY>342.5348</MEAN_ANOMALY></meanElements><tleParameters><EPHEMERIS_TYPE>0</EPHEMERIS_TYPE><CLASSIFICATION_TYPE>U</CLASSIFICATION_TYPE><NORAD_CAT_ID>41184</NORAD_CAT_ID><ELEMENT_SET_NO>999</ELEMENT_SET_NO><REV_AT_EPOCH>43717</REV_AT_EPOCH><BSTAR>.26906E-3</BSTAR><MEAN_MOTION_DOT>.1037E-4</MEAN_MOTION_DOT><MEAN_MOTION_DDOT>0</MEAN_MOTION_DDOT></tleParameters></data></segment></body></omm>
<omm id="CCSDS_OMM_VERS" version="2.0">
<header><CREATION_DATE/><ORIGINATOR/></header><body><segment><metadata><OBJECT_NAME>ORBCOMM FM113 [+]</OBJECT_NAME><OBJECT_ID>2015-081G</OBJECT_ID><CENTER_NAME>EARTH</CENTER_NAME><REF_FRAME>TEME</REF_FRAME><TIME_SYSTEM>UTC</TIME_SYSTEM><MEAN_ELEMENT_THEORY>SGP4</MEAN_ELEMENT_THEORY></metadata><data><meanElements><EPOCH>2024-03-05T12:43:23.170656</EPOCH><MEAN_MOTION>14.56332954</MEAN_MOTION><ECCENTRICITY>.000027</ECCENTRICITY><INCLINATION>46.9992</INCLINATION><RA_OF_ASC_NODE>245.9294</RA_OF_ASC_NODE><ARG_OF_PERICENTER>80.7193</ARG_OF_PERICENTER><MEAN_ANOMALY>279.3722</MEAN_ANOMALY></meanElements><tleParameters><EPHEMERIS_TYPE>0</EPHEMERIS_TYPE><CLASSIFICATION_TYPE>U</CLASSIFICATION_TYPE><NORAD_CAT_ID>41185</NORAD_CAT_ID><ELEMENT_SET_NO>999</ELEMENT_SET_NO><REV_AT_EPOCH>43729</REV_AT_EPOCH><BSTAR>.35761E-3</BSTAR><MEAN_MOTION_DOT>.1433E-4</MEAN_MOTION_DOT><MEAN_MOTION_DDOT>0</MEAN_MOTION_DDOT></tleParameters></data></segment></body></omm>

</ndm>
